[{"OBJECT_NAME":"STARLINK-34947","OBJECT_ID":"2025-175L","EPOCH":"2026-03-09T15:35:16.089792","MEAN_MOTION":15.05625753,"ECCENTRICITY":0.0002568,"INCLINATION":97.6043,"RA_OF_ASC_NODE":302.6094,"ARG_OF_PERICENTER":46.3201,"MEAN_ANOMALY":313.8238,"EPHEMERIS_TYPE":0,"CLASSIFICATION_TYPE":"U","NORAD_CAT_ID":65184,"ELEMENT_SET_NO":999,"REV_AT_EPOCH":3263,"BSTAR":0.00036723,"MEAN_MOTION_DOT":5.239e-5,"MEAN_MOTION_DDOT":0},{"OBJECT_NAME":"OBJECT C","OBJECT_ID":"2025-313C","EPOCH":"2026-03-09T21:13:39.359712","MEAN_MOTION":14.86307196,"ECCENTRICITY":0.01562422,"INCLINATION":97.6236,"RA_OF_ASC_NODE":143.4861,"ARG_OF_PERICENTER":305.4656,"MEAN_ANOMALY":53.2062,"EPHEMERIS_TYPE":0,"CLASSIFICATION_TYPE":"U","NORAD_CAT_ID":67250,"ELEMENT_SET_NO":999,"REV_AT_EPOCH":1059,"BSTAR":0.0010268788,"MEAN_MOTION_DOT":0.00011246,"MEAN_MOTION_DDOT":0}]
